NORAD_CAT_ID,OBJECT_NAME,OBJECT_TYPE,EPOCH,MEAN_MOTION,ECCENTRICITY,INCLINATION,RA_OF_ASC_NODE,ARG_OF_PERICENTER,MEAN_ANOMALY,BSTAR,MEAN_MOTION_DOT,MEAN_MOTION_DDOT,TLE_LINE0,TLE_LINE1,TLE_LINE2,SEMIMAJOR_AXIS,PERIOD,APOGEE,PERIGEE,DECAYED
51123.0,STARLINK-3392,PAYLOAD,2022-07-23 18:48:16,15.08822281,0.0001861,53.218,116.8648,52.9944,307.1218,-5.5987e-05,-1.179e-05,0.0,0 STARLINK-3392,1 51123U 22005V   22204.78352997 -.00001179  00000-0 -55987-4 0  9999,2 51123  53.2180 116.8648 0001861  52.9944 307.1218 15.08822281 28869,6917.935,95.439,541.087,538.512,0.0
51123.0,STARLINK-3392,PAYLOAD,2022-07-24 10:42:09,15.08821206,0.0002016,53.2181,113.8914,59.4629,300.6562,-7.8143e-05,-1.531e-05,0.0,0 STARLINK-3392,1 51123U 22005V   22205.44593815 -.00001531  00000-0 -78143-4 0  9990,2 51123  53.2181 113.8914 0002016  59.4629 300.6562 15.08821206 28965,6917.938,95.439,541.197,538.408,0.0
51123.0,STARLINK-3392,PAYLOAD,2022-07-24 20:14:27,15.08855228,0.0001786999999999,53.2181,112.1074,46.0653,314.0486,-0.00035969,-6.011e-05,0.0,0 STARLINK-3392,1 51123U 22005V   22205.84337253 -.00006011  00000-0 -35969-3 0  9992,2 51123  53.2181 112.1074 0001787  46.0653 314.0486 15.08855228 29020,6917.834,95.437,540.935,538.4630000000002,0.0
51123.0,STARLINK-3392,PAYLOAD,2022-07-25 04:11:23,15.08840219,0.0001904,53.2181,110.6205,52.242,307.8744,-8.573299999999999e-05,-1.652e-05,0.0,0 STARLINK-3392,1 51123U 22005V   22206.17457200 -.00001652  00000-0 -85733-4 0  9995,2 51123  53.2181 110.6205 0001904  52.2420 307.8744 15.08840219 30158,6917.88,95.438,541.062,538.428,0.0
51123.0,STARLINK-3392,PAYLOAD,2022-07-25 18:29:51,15.08830064,0.0001884,53.2178,107.9435,55.7849,304.3321,0.00013323,1.832e-05,0.0,0 STARLINK-3392,1 51123U 22005V   22206.77073378  .00001832  00000-0  13323-3 0  9994,2 51123  53.2178 107.9435 0001884  55.7849 304.3321 15.08830064 29167,6917.911,95.438,541.0790000000002,538.472,0.0
51123.0,STARLINK-3392,PAYLOAD,2022-07-26 02:26:46,15.08833036,0.0001913,53.2179,106.4569,57.1561,302.9615,0.00018704,2.689e-05,0.0,0 STARLINK-3392,1 51123U 22005V   22207.10193231  .00002689  00000-0  18704-3 0  9992,2 51123  53.2179 106.4569 0001913  57.1561 302.9615 15.08833036 29218,6917.901999999999,95.438,541.09,538.443,0.0
51123.0,STARLINK-3392,PAYLOAD,2022-07-26 18:20:38,15.08839308,0.0001919,53.2177,103.4829,57.9428,302.175,8.4364e-05,1.055e-05,0.0,0 STARLINK-3392,1 51123U 22005V   22207.76433363  .00001055  00000-0  84364-4 0  9999,2 51123  53.2177 103.4829 0001919  57.9428 302.1750 15.08839308 29319,6917.8830000000025,95.438,541.075,538.42,0.0
51123.0,STARLINK-3392,PAYLOAD,2022-07-27 10:14:29,15.08840081,0.0001916999999999,53.218,100.5097,59.2028,300.9152,5.8205e-05,6.38e-06,0.0,0 STARLINK-3392,1 51123U 22005V   22208.42673467  .00000638  00000-0  58205-4 0  9995,2 51123  53.2180 100.5097 0001917  59.2028 300.9152 15.08840081 29410,6917.88,95.438,541.071,538.419,0.0
51123.0,STARLINK-3392,PAYLOAD,2022-07-28 02:08:20,15.08848427,0.0001909999999999,53.2179,97.5358,60.2102,299.9079,5.0361e-05,5.14e-06,0.0,0 STARLINK-3392,1 51123U 22005V   22209.08912757  .00000514  00000-0  50361-4 0  9994,2 51123  53.2179  97.5358 0001910  60.2102 299.9079 15.08848427 30599,6917.855,95.437,541.0409999999998,538.398,0.0
51123.0,STARLINK-3392,PAYLOAD,2022-07-28 10:05:15,15.08852585,0.0001929,53.2181,96.0493,60.3763,299.7421,6.9947e-05,8.26e-06,0.0,0 STARLINK-3392,1 51123U 22005V   22209.42032209  .00000826  00000-0  69947-4 0  9993,2 51123  53.2181  96.0493 0001929  60.3763 299.7421 15.08852585 29564,6917.842,95.437,541.0409999999998,538.372,0.0
51123.0,STARLINK-3392,PAYLOAD,2022-07-28 16:26:48,15.08847472,0.0001936,53.2181,94.8598,61.269,298.8496,0.00011383,1.524e-05,0.0,0 STARLINK-3392,1 51123U 22005V   22209.68528149  .00001524  00000-0  11383-3 0  9990,2 51123  53.2181  94.8598 0001936  61.2690 298.8496 15.08847472 29609,6917.858,95.437,541.062,538.383,0.0
51123.0,STARLINK-3392,PAYLOAD,2022-07-28 19:37:35,15.08839346,0.0001972,53.2184,94.2654,62.9986,297.1207,4.7e-05,4.6e-06,0.0,0 STARLINK-3392,1 51123U 22005V   22209.81776922  .00000460  00000-0  47000-4 0  9993,2 51123  53.2184  94.2654 0001972  62.9986 297.1207 15.08839346 30701,6917.882,95.438,541.112,538.383,0.0
51123.0,STARLINK-3392,PAYLOAD,2022-07-28 22:48:21,15.08836953,0.0001962,53.2184,93.6707,62.4247,297.6945,2.4817e-05,1.07e-06,0.0,0 STARLINK-3392,1 51123U 22005V   22209.95025140  .00000107  00000-0  24817-4 0  9996,2 51123  53.2184  93.6707 0001962  62.4247 297.6945 15.08836953 29643,6917.89,95.438,541.112,538.3969999999998,0.0
51123.0,STARLINK-3392,PAYLOAD,2022-07-29 16:17:35,15.08846191,0.0001978,53.2184,90.3995,64.4598,295.6598,1.9073e-05,1.5e-07,0.0,0 STARLINK-3392,1 51123U 22005V   22210.67888421  .00000015  00000-0  19073-4 0  9992,2 51123  53.2184  90.3995 0001978  64.4598 295.6598 15.08846191 29753,6917.861,95.437,541.095,538.3580000000002,0.0
51123.0,STARLINK-3392,PAYLOAD,2022-07-30 01:49:54,15.08841404,0.0001720999999999,53.2183,88.6161,69.9028,290.2149,-4.9339e-05,-1.073e-05,0.0,0 STARLINK-3392,1 51123U 22005V   22211.07632771 -.00001073  00000-0 -49339-4 0  9997,2 51123  53.2183  88.6161 0001721  69.9028 290.2149 15.08841404 29813,6917.876,95.437,540.932,538.5509999999998,0.0
51123.0,STARLINK-3392,PAYLOAD,2022-07-30 16:08:23,15.08832907,0.0001751,53.2184,85.9386,64.9471,295.1703,-3.008e-05,-7.67e-06,0.0,0 STARLINK-3392,1 51123U 22005V   22211.67249329 -.00000767  00000-0 -30080-4 0  9998,2 51123  53.2184  85.9386 0001751  64.9471 295.1703 15.08832907 30981,6917.901999999999,95.438,540.9780000000002,538.556,0.0
51123.0,STARLINK-3392,PAYLOAD,2022-07-30 22:29:55,15.08834638,0.0001801,53.2182,84.7498,61.5937,298.5236,-8.5829e-06,-4.25e-06,0.0,0 STARLINK-3392,1 51123U 22005V   22211.93745248 -.00000425  00000-0 -85829-5 0  9991,2 51123  53.2182  84.7498 0001801  61.5937 298.5236 15.08834638 29941,6917.897,95.438,541.008,538.516,0.0
51123.0,STARLINK-3392,PAYLOAD,2022-07-31 08:02:14,15.0883724,0.000171,53.2181,82.9655,67.3924,292.7249,1.0512e-05,-1.21e-06,0.0,0 STARLINK-3392,1 51123U 22005V   22212.33489069 -.00000121  00000-0  10512-4 0  9990,2 51123  53.2181  82.9655 0001710  67.3924 292.7249 15.08837240 30005,6917.889,95.438,540.937,538.571,0.0
51123.0,STARLINK-3392,PAYLOAD,2022-07-31 15:59:10,15.08846795,0.0001769,53.2181,81.4785,61.0538,299.0631,-7.2079e-05,-1.435e-05,0.0,0 STARLINK-3392,1 51123U 22005V   22212.66608917 -.00001435  00000-0 -72079-4 0  9997,2 51123  53.2181  81.4785 0001769  61.0538 299.0631 15.08846795 30054,6917.86,95.437,540.948,538.501,0.0
51123.0,STARLINK-3392,PAYLOAD,2022-08-01 07:53:01,15.08839819,0.0001891,53.2182,78.5051,62.1715,297.9468,0.00012336,1.676e-05,0.0,0 STARLINK-3392,1 51123U 22005V   22213.32848656  .00001676  00000-0  12336-3 0  9991,2 51123  53.2182  78.5051 0001891  62.1715 297.9468 15.08839819 30158,6917.880999999999,95.438,541.054,538.438,0.0
51123.0,STARLINK-3392,PAYLOAD,2022-08-01 17:25:20,15.08832719,0.0001909999999999,53.2182,76.7214,64.3285,295.7904,4.8071e-06,-2.12e-06,0.0,0 STARLINK-3392,1 51123U 22005V   22213.72593615 -.00000212  00000-0  48071-5 0  9990,2 51123  53.2182  76.7214 0001910  64.3285 295.7904 15.08832719 31296,6917.903,95.438,541.089,538.446,0.0
51123.0,STARLINK-3392,PAYLOAD,2022-08-01 22:11:30,15.08832803,0.000192,53.2183,75.8294,64.4264,295.6926,3.6447e-06,-2.3e-06,0.0,0 STARLINK-3392,1 51123U 22005V   22213.92465685 -.00000230  00000-0  36447-5 0  9991,2 51123  53.2183  75.8294 0001920  64.4264 295.6926 15.08832803 30245,6917.901999999999,95.438,541.096,538.439,0.0
51123.0,STARLINK-3392,PAYLOAD,2022-08-02 07:43:49,15.08834864,0.0001924,53.2182,74.045,63.3469,296.772,9.8475e-06,-1.31e-06,0.0,0 STARLINK-3392,1 51123U 22005V   22214.32209691 -.00000131  00000-0  98475-5 0  9998,2 51123  53.2182  74.0450 0001924  63.3469 296.7720 15.08834864 30308,6917.896,95.438,541.092,538.43,0.0
51123.0,STARLINK-3392,PAYLOAD,2022-08-03 01:13:03,15.08840228,0.0001929,53.2177,70.774,64.3469,295.7722,1.3166e-05,-7.9e-07,0.0,0 STARLINK-3392,1 51123U 22005V   22215.05073393 -.00000079  00000-0  13166-4 0  9991,2 51123  53.2177  70.7740 0001929  64.3469 295.7722 15.08840228 30417,6917.88,95.438,541.0790000000002,538.41,0.0
51123.0,STARLINK-3392,PAYLOAD,2022-08-03 17:06:54,15.0884147,0.0001807,53.2178,67.8,64.3253,295.7925,9.1013e-05,1.161e-05,0.0,0 STARLINK-3392,1 51123U 22005V   22215.71312893  .00001161  00000-0  91013-4 0  9994,2 51123  53.2178  67.8000 0001807  64.3253 295.7925 15.08841470 30516,6917.876,95.437,540.991,538.491,0.0
51123.0,STARLINK-3392,PAYLOAD,2022-08-04 13:46:55,15.0883335,0.0001909999999999,53.2171,63.9345,65.025,295.094,5.349400000000002e-06,-2.03e-06,0.0,0 STARLINK-3392,1 51123U 22005V   22216.57425802 -.00000203  00000-0  53494-5 0  9993,2 51123  53.2171  63.9345 0001910  65.0250 295.0940 15.08833350 30640,6917.901,95.438,541.087,538.444,0.0
51123.0,STARLINK-3392,PAYLOAD,2022-08-04 16:57:42,15.08834215,0.0001699,53.2196,63.3413,62.0019,298.1145,6.386199999999999e-07,-2.78e-06,0.0,0 STARLINK-3392,1 51123U 22005V   22216.70673777 -.00000278  00000-0  63862-6 0  9997,2 51123  53.2196  63.3413 0001699  62.0019 298.1145 15.08834215 30665,6917.898,95.438,540.938,538.5880000000002,0.0
51123.0,STARLINK-3392,PAYLOAD,2022-08-04 20:08:28,15.08835631,0.0001668,53.2188,62.7454,64.0751,296.0413,1.9935e-05,2.9e-07,0.0,0 STARLINK-3392,1 51123U 22005V   22216.83921651  .00000029  00000-0  19935-4 0  9991,2 51123  53.2188  62.7454 0001668  64.0751 296.0413 15.08835631 30685,6917.894,95.438,540.913,538.605,0.0
51123.0,STARLINK-3392,PAYLOAD,2022-08-05 19:59:14,15.08845824,0.0001093,53.2238,58.2857,31.788,328.3178,2.1428e-05,5.3e-07,0.0,0 STARLINK-3392,1 51123U 22005V   22217.83280832  .00000053  00000-0  21428-4 0  9998,2 51123  53.2238  58.2857 0001093  31.7880 328.3178 15.08845824 31913,6917.863,95.437,540.484,538.971,0.0
